BEIDOU G3               
1 36590U 10024A   17256.22114571 -.00000377  00000-0  00000-0 0  9992
2 36590   1.4025  27.3671 0005954 309.4129 205.8101  1.00272169 26704
BADR-5                  
1 36592U 10025A   17255.73776806  .00000124  00000-0  00000-0 0  9994
2 36592   0.0161 147.7119 0005013  34.9105 100.8917  1.00273415 21132
COMS 1                  
1 36744U 10032A   17256.51030337 -.00000368  00000-0  00000-0 0  9991
2 36744   0.0314 104.7599 0000713  99.1694 100.6939  1.00270872 19014
ARABSAT-5A              
1 36745U 10032B   17256.42410472  .00000130  00000-0  00000+0 0  9999
2 36745   0.0570   0.7016 0003157 170.8032   4.2555  1.00271205 26557
ECHOSTAR 15             
1 36792U 10034A   17256.49882110 -.00000305  00000-0  00000-0 0  9998
2 36792   0.0449 297.7659 0002099 237.4009 295.4420  1.00271992 26292
NILESAT 201             
1 36830U 10037A   17256.25740517 -.00000080  00000-0  00000-0 0  9992
2 36830   0.0429 175.9011 0004662 344.2055 278.0020  1.00271976 26282
RASCOM-QAF 1R           
1 36831U 10037B   17256.01362081 -.00000003  00000-0  00000+0 0  9997
2 36831   0.0132 128.3808 0004207  56.2153 175.4098  1.00272430 26218
CHINASAT 6A (ZX 6A)     
1 37150U 10042A   17256.62202162 -.00000377  00000-0  00000+0 0  9992
2 37150   0.0275 226.7231 0001435   3.7595 111.3054  1.00271298 25829
QZS-1 (MICHIBIKI)       
1 37158U 10045A   17255.60184848 -.00000212  00000-0  00000+0 0  9998
2 37158  40.8856 158.0609 0753933 270.6666 274.9075  1.00252339 25634
XM-5                    
1 37185U 10053A   17256.32227951 -.00000227  00000-0  00000-0 0  9997
2 37185   0.0201 160.0420 0001714 189.8046  33.4684  1.00268960 25413
BSAT-3B                 
1 37207U 10056B   17256.62820552 -.00000374  00000-0  00000-0 0  9997
2 37207   0.0826 301.6501 0002397 319.9003  67.2741  1.00270542 20177
BEIDOU G4               
1 37210U 10057A   17256.50674516 -.00000135  00000-0  00000+0 0  9990
2 37210   0.8465  51.1119 0006450 169.5194 114.4285  1.00273066 25216
SKYTERRA 1              
1 37218U 10061A   17255.22649098 -.00000135  00000-0  00000-0 0  9999
2 37218   3.1180 331.6777 0005583 184.3831 175.5835  1.00272008 25123
ZHONGXING-20A           
1 37234U 10064A   17255.39196810 -.00000358  00000-0  00000-0 0  9994
2 37234   0.0268 263.5162 0001395  28.5504 330.4466  1.00268600 24942
HYLAS 1                 
1 37237U 10065A   17256.45323951 -.00000257  00000-0  00000-0 0  9992
2 37237   0.0129 303.4749 0001505 250.4123 288.4382  1.00268518 24916
INTELSAT 17 (IS-17)     
1 37238U 10065B   17256.39420943 -.00000025  00000-0  00000-0 0  9998
2 37238   0.0213 199.1295 0002800 337.4952  23.8797  1.00273333 21359
EUTELSAT KA-SAT 9A      
1 37258U 10069A   17255.99674388  .00000040  00000-0  00000-0 0  9999
2 37258   0.0421 270.3175 0002981 271.4389 178.2522  1.00269366 11971
HISPASAT 1E             
1 37264U 10070A   17256.45323951 -.00000239  00000-0  00000-0 0  9998
2 37264   0.0231 135.8126 0005276  38.4254 311.5536  1.00269633 21111
KOREASAT 6              
1 37265U 10070B   17255.39453829 -.00000382  00000-0  00000-0 0  9998
2 37265   0.0216 100.3286 0001980  83.0258  66.2694  1.00270567 24690
INTELSAT NEW DAWN       
1 37392U 11016A   17256.63305626  .00000132  00000-0  00000-0 0  9991
2 37392   0.0277 228.4468 0001283  20.4074   4.6718  1.00274448 21231
YAHSAT 1A               
1 37393U 11016B   17256.60021726  .00000077  00000-0  00000-0 0  9993
2 37393   0.0212 132.7103 0001829  57.2737  71.3583  1.00270347 10338
TELSTAR 14R             
1 37602U 11021A   17256.52688244 -.00000303  00000-0  00000-0 0  9990
2 37602   0.0441 320.7907 0001117 309.8626 208.7469  1.00270679 23789
GSAT-8                  
1 37605U 11022A   17255.79771635  .00000063  00000-0  00000+0 0  9990
2 37605   0.0312 109.0767 0005310 146.1946  78.9746  1.00273625 23157
ST-2                    
1 37606U 11022B   17255.46214350 -.00000231  00000-0  00000-0 0  9990
2 37606   0.0182 122.4251 0001494  73.9028  49.7102  1.00270310 23180
CHINASAT 10 (ZX 10)     
1 37677U 11026A   17256.62820539 -.00000376  00000-0  00000-0 0  9993
2 37677   0.0413 271.9516 0004944 265.7512 151.7639  1.00269410 22896
TIANLIAN 1-02           
1 37737U 11032A   17256.58730047  .00000006  00000-0  00000-0 0  9995
2 37737   2.7652  76.9905 0005648 162.9546 141.0226  1.00274408 22649
GSAT-12                 
1 37746U 11034A   17256.38934920 -.00000188  00000-0  00000-0 0  9993
2 37746   0.0167 120.9709 0005604 342.0737 112.7026  1.00270104 11413
SES-3                   
1 37748U 11035A   17256.45125865 -.00000125  00000-0  00000-0 0  9995
2 37748   0.0439 308.8333 0001965 218.8487 244.3963  1.00271964 22537
KAZSAT-2                
1 37749U 11035B   17255.78729743 -.00000218  00000-0  00000+0 0  9998
2 37749   0.0311 286.0928 0001456 287.1515 148.6624  1.00270021 22498
ASTRA 1N                
1 37775U 11041A   17256.42893208  .00000097  00000-0  00000-0 0  9999
2 37775   0.0602 344.4051 0002036 131.3765  50.4398  1.00273268 22324
BSAT-3C (JCSAT-110R)    
1 37776U 11041B   17256.62820522 -.00000374  00000-0  00000-0 0  9990
2 37776   0.0340 274.3331 0000182  40.1040  14.4892  1.00269551 18424
PAKSAT-1R               
1 37779U 11042A   17256.63342910  .00000130  00000-0  00000-0 0  9994
2 37779   0.0175 164.6984 0002959  28.1886  65.9160  1.00270722 22400
CHINASAT 1A (ZX 1A)     
1 37804U 11047A   17256.51034911 -.00000361  00000-0  00000-0 0  9991
2 37804   0.0377 234.0603 0002529  14.1966  58.1568  1.00268398 22008
COSMOS 2473             
1 37806U 11048A   17256.05903689 -.00000130  00000-0  00000-0 0  9994
2 37806   0.0475 108.4955 0001854 108.1907 143.3107  1.00271426 21957
SES-2                   
1 37809U 11049A   17256.39077119 -.00000218  00000-0  00000-0 0  9992
2 37809   0.0410 316.9286 0002089 217.3048 232.0143  1.00270908 21941
ARABSAT-5C              
1 37810U 11049B   17256.42893208  .00000101  00000-0  00000-0 0  9993
2 37810   0.0659  20.8204 0002831 150.8309 355.3987  1.00275357 21987
EUTELSAT 7 WEST A       
1 37816U 11051A   17256.04182875 -.00000082  00000-0  00000-0 0  9990
2 37816   0.0626   6.4095 0005787 182.6847 170.9051  1.00271629 21833
QUETZSAT 1              
1 37826U 11054A   17256.37115274 -.00000264  00000-0  00000-0 0  9991
2 37826   0.0439 330.2697 0002474 191.6852 247.2018  1.00269950 17838
INTELSAT 18 (IS-18)     
1 37834U 11056A   17256.58596990  .00000029  00000-0  00000-0 0  9991
2 37834   0.0184 150.2703 0001876  38.0999 195.3429  1.00273117 21860
EUTELSAT 16A            
1 37836U 11057A   17256.42893208  .00000081  00000-0  00000+0 0  9996
2 37836   0.0715  24.6387 0004349 151.7560 346.6359  1.00274578 21718
VIASAT-1                
1 37843U 11059A   17256.34210664 -.00000046  00000-0  00000-0 0  9999
2 37843   0.0209 168.9444 0002569   8.5524 183.0764  1.00270491 15256
ASIASAT 7               
1 37933U 11069A   17256.62683576 -.00000358  00000-0  00000-0 0  9993
2 37933   0.0173 150.4057 0001683 339.0529 194.4721  1.00274749 12789
LUCH 5A                 
1 37951U 11074B   17256.50188302 -.00000069  00000-0  00000-0 0  9992
2 37951   1.5944 173.0669 0002022   8.8664 158.3884  1.00273142 21112
NIGCOMSAT 1R            
1 38014U 11077A   17256.60569872  .00000121  00000-0  00000-0 0  9990
2 38014   0.0478 323.2287 0001235 212.3270  77.7591  1.00270142 20883
FENGYUN 2F              
1 38049U 12002A   17256.21954270 -.00000379  00000-0  00000-0 0  9990
2 38049   1.8875  78.3285 0003516 229.4484 235.2720  1.00280471 20811
SES-4                   
1 38087U 12007A   17256.44837691 -.00000191  00000-0  00000-0 0  9991
2 38087   0.0166  53.6141 0002151 110.9185 327.5148  1.00272193 20192
BEIDOU G5               
1 38091U 12008A   17256.02341193  .00000033  00000-0  00000-0 0  9992
2 38091   2.3589  57.6099 0003625 201.9563 159.8512  1.00276889 20406
INTELSAT 22 (IS-22)     
1 38098U 12011A   17255.82195627 -.00000080  00000-0  00000-0 0  9992
2 38098   0.0123  62.2175 0002312 128.4490 169.3387  1.00271538 19762
APSTAR 7                
1 38107U 12013A   17256.56504286 -.00000126  00000-0  00000-0 0  9993
2 38107   0.0424  91.7049 0002650  77.8131 103.1697  1.00272414 20090
YAHSAT 1B               
1 38245U 12016A   17254.89252467  .00000108  00000-0  00000-0 0  9993
2 38245   0.0201 173.4598 0001446  13.8072 172.7309  1.00272164 13545
JCSAT-13                
1 38331U 12023A   17255.67816591 -.00000377  00000-0  00000-0 0  9997
2 38331   0.0202 152.0828 0002224  44.6887 163.2212  1.00268968 19442
VINASAT-2               
1 38332U 12023B   17256.48169986 -.00000352  00000-0  00000-0 0  9990
2 38332   0.0217 262.7446 0001722 273.7554 121.4204  1.00271019 14580
NIMIQ 6                 
1 38342U 12026A   17256.27404713 -.00000196  00000-0  00000+0 0  9996
2 38342   0.0439 292.0863 0002613 245.4656 182.4584  1.00271481 19525
CHINASAT 2A (ZX 2A)     
1 38352U 12028A   17256.55535241 -.00000317  00000-0  00000-0 0  9997
2 38352   0.0139 209.3551 0003097 103.2473 338.3329  1.00271955 19304
INTELSAT 19 (IS-19)     
1 38356U 12030A   17255.56180917 -.00000077  00000-0  00000-0 0  9993
2 38356   0.0224 286.8843 0002851 243.4850 189.6467  1.00272933 19431
ECHOSTAR 17             
1 38551U 12035A   17256.31836272 -.00000098  00000-0  00000-0 0  9994
2 38551   0.0227 159.5644 0002049  11.5521 188.8870  1.00269733 18997
METEOSAT-10 (MSG-3)     
1 38552U 12035B   17256.01905253 -.00000017  00000-0  00000-0 0  9999
2 38552   0.8378   2.9980 0001994 166.5243 190.4922  1.00282264 19146
SES-5                   
1 38652U 12036A   17256.43865403  .00000011  00000-0  00000-0 0  9992
2 38652   0.0469 265.8626 0001790 273.9374 335.7213  1.00271973 12436
TIANLIAN 1-03           
1 38730U 12040A   17255.99246823  .00000050  00000-0  00000+0 0  9995
2 38730   0.0857 251.3021 0003958 278.2336 190.4822  1.00270153 18917
